SENTINEL-6              
1 46984U 20086A   24156.50526021 -.00000047  00000+0  58938-4 0  9994
2 46984  66.0412 237.6095 0007883 270.3467  89.6645 12.80928329165205
